0 SL-8 DEB
1 21162U 91009Z   13281.83416226 -.00000015  00000-0  38443-5 0  1567
2 21162 073.9804 049.4967 0137889 253.6075 230.0920 12.27779403 12908
0 SL-8 DEB
1 21162U 91009Z   13284.09914178 -.00000018  00000-0 -17735-4 0  1572
2 21162 073.9809 046.6000 0137901 250.3678 161.3002 12.27779538 13185
0 SL-8 DEB
1 21162U 91009Z   13286.13910313 -.00000031  00000-0 -12789-3 0  1585
2 21162 073.9814 043.9913 0137893 247.4511 177.9271 12.27779721 13430
0 SL-8 DEB
1 21162U 91009Z   13288.51605008  .00000003  00000-0  16071-3 0  1597
2 21162 073.9818 040.9517 0137889 244.0519 244.0347 12.27779210 13722
0 SL-8 DEB
1 21162U 91009Z   13290.71241014  .00000005  00000-0  17808-3 0  1608
2 21162 073.9818 038.1432 0137899 240.9191 231.9343 12.27779262 13996
0 SL-8 DEB
1 21162U 91009Z   13292.75896523  .00000010  00000-0  21529-3 0  1617
2 21162 073.9817 035.5262 0137887 237.9903 277.7088 12.27779278 14241
0 SL-8 DEB
1 21162U 91009Z   13295.18603032 -.00000008  00000-0  68078-4 0  1628
2 21162 073.9817 032.4225 0137871 234.5217 205.3295 12.27779652 14546
